1 45151U 20008W   23255.44226515  .00001246  00000-0  34782-2 0  9991
2 45151  87.8767 221.4258 0001930  78.8175 281.3170 13.11421993178196
1 45151U 20008W   23255.44226515  .00001246  00000-0  34782-2 0  9991
2 45151  87.8767 221.4258 0001930  78.8175 281.3170 13.11421993178972
1 45151U 20008W   23255.90005329  .00001265  00000-0  35337-2 0  9998
2 45151  87.8803 221.3339 0002087  77.7138 282.4223 13.11413829178254
1 45151U 20008W   23256.43412837  .00000195  00000-0  51368-3 0  9997
2 45151  87.8831 221.2273 0002194  83.3061 276.8316 13.11420853178321
1 45151U 20008W   23256.43412837  .00000195  00000-0  51368-3 0  9997
2 45151  87.8831 221.2273 0002194  83.3061 276.8316 13.11420853179108
1 45151U 20008W   23256.89190757 -.00000317  00000-0 -92937-3 0  9996
2 45151  87.8847 221.1366 0001585  82.1543 277.9765 13.11421394178382
1 45151U 20008W   23257.42598758  .00003049  00000-0  85647-2 0  9991
2 45151  87.8880 221.0305 0002491  74.9671 285.1732 13.11409029178453
1 45151U 20008W   23257.65488257  .00002938  00000-0  82538-2 0  9990
2 45151  87.8885 220.9855 0002593  76.0537 284.0880 13.11405098179267
1 45151U 20008W   23257.88376821 -.00000114  00000-0 -35886-3 0  9999
2 45151  87.8890 220.9398 0002010  75.4084 284.7266 13.11419267178514
1 45151U 20008W   23257.96006067  .00002451  00000-0  68791-2 0  9994
2 45151  87.8898 220.9245 0001895  79.2253 280.9088 13.11414388179300
1 45151U 20008W   23258.41784162 -.00000576  00000-0 -16616-2 0  9991
2 45151  87.8923 220.8335 0002766  80.9142 279.2299 13.11425674178586
1 45151U 20008W   23259.40969996  .00000811  00000-0  22514-2 0  9995
2 45151  87.8932 220.6369 0002241  82.4699 277.6684 13.11416633178713
1 45151U 20008W   23259.40969996  .00000811  00000-0  22514-2 0  9995
2 45151  87.8932 220.6369 0002241  82.4699 277.6684 13.11416633179499
1 45151U 20008W   23259.63858662 -.00002153  00000-0 -61111-2 0  9996
2 45151  87.8933 220.5916 0002268  80.9180 279.2204 13.11430659179528
1 45151U 20008W   23259.94377414  .00000875  00000-0  24315-2 0  9993
2 45151  87.8942 220.5308 0002002  78.7013 281.4340 13.11417173179565
1 45151U 20008W   23260.40155540  .00000094  00000-0  22883-3 0  9992
2 45151  87.8943 220.4401 0002189  77.9759 282.1614 13.11417569178844
1 45151U 20008W   23261.39340084 -.00005910  00000-0 -16715-1 0  9999
2 45151  87.8943 220.2435 0001962  72.3082 287.8260 13.11446661178973
1 45151U 20008W   23261.39340084 -.00005910  00000-0 -16715-1 0  9999
2 45151  87.8943 220.2435 0001962  72.3082 287.8260 13.11446661179750
1 45151U 20008W   23261.85118847 -.00000275  00000-0 -81223-3 0  9997
2 45151  87.8945 220.1529 0002084  76.9540 283.1821 13.11418874179038
1 45151U 20008W   23261.92748523 -.00000396  00000-0 -11528-2 0  9999
2 45151  87.8943 220.1375 0002096  76.7330 283.4032 13.11419028179829
1 45151U 20008W   23263.37712067 -.00000404  00000-0 -11771-2 0  9994
2 45151  87.8944 219.8502 0002081  76.4933 283.6427 13.11417729179238
1 45151U 20008W   23263.37712067 -.00000404  00000-0 -11771-2 0  9994
2 45151  87.8944 219.8502 0002081  76.4933 283.6427 13.11417729180016
1 45151U 20008W   23263.91119647 -.00000288  00000-0 -84934-3 0  9991
2 45151  87.8945 219.7443 0002103  76.8887 283.2476 13.11418176179304
1 45151U 20008W   23264.44527450 -.00000489  00000-0 -14158-2 0  9998
2 45151  87.8947 219.6383 0002095  76.5567 283.5794 13.11417418179371
1 45151U 20008W   23264.44527450 -.00000489  00000-0 -14158-2 0  9998
2 45151  87.8947 219.6383 0002095  76.5567 283.5794 13.11417418180159
1 45151U 20008W   23264.90305531 -.00000460  00000-0 -13324-2 0  9996
2 45151  87.8947 219.5478 0002089  76.3284 283.8077 13.11416633179434
1 45151U 20008W   23265.43713268 -.00000381  00000-0 -11099-2 0  9994
2 45151  87.8948 219.4418 0002062  76.0270 284.1087 13.11416689179505
1 45151U 20008W   23265.89491374 -.00000484  00000-0 -14028-2 0  9994
2 45151  87.8948 219.3512 0002056  75.5326 284.6030 13.11417022179569
1 45151U 20008W   23265.89491374 -.00000484  00000-0 -14028-2 0  9994
2 45151  87.8948 219.3512 0002056  75.5326 284.6030 13.11417022180347
1 45151U 20008W   23266.42899199 -.00000336  00000-0 -98428-3 0  9994
2 45151  87.8949 219.2454 0002039  75.6057 284.5297 13.11416463179637
1 45151U 20008W   23266.96307107 -.00000207  00000-0 -62093-3 0  9992
2 45151  87.8949 219.1396 0002019  75.0603 285.0749 13.11415094180482
1 45151U 20008W   23267.42085152 -.00000080  00000-0 -26080-3 0  9992
2 45151  87.8950 219.0488 0002009  74.8077 285.3273 13.11416497179768
1 45151U 20008W   23267.87863421 -.00000070  00000-0 -23403-3 0  9999
2 45151  87.8951 218.9581 0001997  74.5351 285.5997 13.11415256179822
1 45151U 20008W   23268.10752547 -.00000073  00000-0 -24158-3 0  9993
2 45151  87.8952 218.9129 0001988  74.2772 285.8575 13.11414958180639
1 45151U 20008W   23268.56530561  .00000202  00000-0  53444-3 0  9995
2 45151  87.8954 218.8220 0001982  74.4193 285.7153 13.11416394179911
1 45151U 20008W   23268.87049476  .00000103  00000-0  25447-3 0  9991
2 45151  87.8955 218.7616 0001988  74.1649 285.9698 13.11415269179959
1 45151U 20008W   23269.40457220  .00000317  00000-0  85994-3 0  9991
2 45151  87.8957 218.6558 0001995  74.2621 285.8727 13.11416535180023
1 45151U 20008W   23269.40457220  .00000317  00000-0  85994-3 0  9991
2 45151  87.8957 218.6558 0001995  74.2621 285.8727 13.11416535180809
1 45151U 20008W   23269.86235458  .00000314  00000-0  85097-3 0  9999
2 45151  87.8959 218.5653 0002009  74.3566 285.7783 13.11415852180084
1 45151U 20008W   23270.39644869  .00000503  00000-0  13827-2 0  9990
2 45151  87.8952 218.4562 0001846  56.4202 303.7101 13.11397966180159
1 45151U 20008W   23270.39644869  .00000503  00000-0  13827-2 0  9990
2 45151  87.8952 218.4562 0001846  56.4202 303.7101 13.11397966180935
1 45151U 20008W   23270.77799747 -.00006906  00000-0 -19552-1 0  9993
2 45151  87.8960 218.3846 0002472  75.7950 284.3452 13.11355328180982
1 45151U 20008W   23270.93061219 -.00008362  00000-0 -23676-1 0  9997
2 45151  87.8959 218.3538 0002047  74.5154 285.6200 13.11340480181001
1 45151U 20008W   23271.38842490 -.00008265  00000-0 -23406-1 0  9998
2 45151  87.8958 218.2632 0001966  72.0529 288.0813 13.11332923180281
1 45151U 20008W   23271.92253722 -.00007273  00000-0 -20598-1 0  9999
2 45151  87.8963 218.1574 0001918  68.7187 291.4146 13.11329594180355
1 45151U 20008W   23272.38035253 -.00005186  00000-0 -14696-1 0  9990
2 45151  87.8962 218.0667 0001966  70.1602 289.9737 13.11320557180413
1 45151U 20008W   23272.38035253 -.00005186  00000-0 -14696-1 0  9990
2 45151  87.8962 218.0667 0001966  70.1602 289.9737 13.11320557181199
1 45151U 20008W   23273.14339757  .00001079  00000-0  30129-2 0  9996
2 45151  87.8964 217.9155 0001984  73.2749 286.8597 13.11287330181299
1 45151U 20008W   23273.21970199  .00001120  00000-0  31294-2 0  9996
2 45151  87.8964 217.9001 0001996  73.2514 286.8832 13.11287019180523
1 45151U 20008W   23274.36425992  .00000542  00000-0  14966-2 0  9993
2 45151  87.8965 217.6738 0001998  74.6039 285.5310 13.11292950180670
1 45151U 20008W   23274.36425992  .00000542  00000-0  14966-2 0  9993
2 45151  87.8965 217.6738 0001998  74.6039 285.5310 13.11292950181457
1 45151U 20008W   23274.89838747  .00000405  00000-0  11086-2 0  9995
2 45151  87.8968 217.5680 0002026  74.6026 285.5326 13.11292849180749
1 45151U 20008W   23275.81403386  .00000094  00000-0  23099-3 0  9997
2 45151  87.8969 217.3867 0002017  74.3190 285.8161 13.11293477180865
1 45151U 20008W   23275.81403386  .00000094  00000-0  23099-3 0  9997
2 45151  87.8969 217.3867 0002017  74.3190 285.8161 13.11293477181642
1 45151U 20008W   23276.57707256 -.00000063  00000-0 -21365-3 0  9996
2 45151  87.8971 217.2357 0002001  73.9933 286.1416 13.11292862180969
1 45151U 20008W   23276.88228761 -.00000158  00000-0 -48107-3 0  9997
2 45151  87.8971 217.1753 0001985  73.6481 286.4865 13.11293342181789
1 45151U 20008W   23277.34007663  .00004119  00000-0  11595-1 0  9993
2 45151  87.8968 217.0848 0002154  71.2917 288.8445 13.11325604181840
1 45151U 20008W   23277.56896029  .00006471  00000-0  18227-1 0  9991
2 45151  87.8970 217.0393 0002131  77.2123 282.9243 13.11346300181092
1 45151U 20008W   23277.79785499  .00006754  00000-0  19025-1 0  9995
2 45151  87.8970 216.9939 0001472  74.3954 285.7336 13.11352477181909
1 45151U 20008W   23277.87415121  .00007113  00000-0  20036-1 0  9990
2 45151  87.8976 216.9789 0001570  74.4723 285.6578 13.11357484181137
1 45151U 20008W   23278.10304324  .00007971  00000-0  22452-1 0  9995
2 45151  87.9005 216.9379 0001697  68.5668 291.5641 13.11366408181940
1 45151U 20008W   23278.33193439  .00008415  00000-0  23702-1 0  9996
2 45151  87.8972 216.8883 0002025  73.4181 286.7170 13.11374321181971
1 45151U 20008W   23278.56083119  .00008142  00000-0  22932-1 0  9995
2 45151  87.8974 216.8430 0002038  74.5503 285.5850 13.11376249181226
1 45151U 20008W   23278.86602657  .00007067  00000-0  19899-1 0  9995
2 45151  87.8971 216.7827 0002091  72.8655 287.2702 13.11381203181265
1 45151U 20008W   23279.55270864  .00002521  00000-0  70757-2 0  9994
2 45151  87.8975 216.6471 0002076  71.2380 288.8973 13.11402169181356
1 45151U 20008W   23279.78160069  .00002523  00000-0  70832-2 0  9990
2 45151  87.8976 216.6018 0002006  71.8216 288.3130 13.11402080182163
1 45151U 20008W   23279.85789243 -.00001191  00000-0 -33956-2 0  9997
2 45151  87.8976 216.5866 0001918  73.8623 286.2716 13.11420594181399
1 45151U 20008W   23280.08678150 -.00001085  00000-0 -30981-2 0  9995
2 45151  87.8977 216.5414 0001917  74.0290 286.1049 13.11420714182204
1 45151U 20008W   23280.54456162 -.00001194  00000-0 -34038-2 0  9991
2 45151  87.8978 216.4505 0001906  74.4539 285.6799 13.11420087181481
1 45151U 20008W   23280.84974890 -.00000627  00000-0 -18049-2 0  9991
2 45151  87.8978 216.3900 0001901  74.9317 285.2021 13.11417107181521
1 45151U 20008W   23281.38382658 -.00000409  00000-0 -11896-2 0  9997
2 45151  87.8978 216.2842 0001893  74.9355 285.1982 13.11416342182376
